{"type": "Feature", "properties": {"name": "Wallonia", "iso2": "BE-WAL", "admin_level": 4, "osm_id": 90348, "countrylevel_id": "iso2:BE-WAL", "osm_data": {"localname": "Wallonie", "official_name": "", "alltags": {"name:ar": "والونيا", "name:be": "Валонія", "name:ca": "Valònia", "name:en": "Wallonia", "name:es": "Valonia", "name:fi": "Vallonia", "name:fr": "Wallonie", "name:fy": "Walloanje", "name:lb": "Wallounien", "name:lt": "Valonija", "name:nl": "Wallonië", "name:pl": "Walonia", "name:pt": "Valônia", "name:ru": "Валлония", "name:sk": "Valónsko", "name:wa": "Walonreye", "ref:INS": "03000", "website": "https://www.wallonie.be/", "name:tzl": "Valonia", "nat_name": "Région Wallonne", "nat_name:ca": "Regió Valona", "nat_name:de": "Wallonische Region", "nat_name:en": "Walloon Region", "nat_name:es": "Región Valona", "nat_name:fr": "Région wallonne", "nat_name:lb": "Wallounesch Regioun", "nat_name:nl": "Waals Gewest", "nat_name:wa": "Redjon Walone", "default_language": "fr"}}, "center_lat": 50.31, "center_lon": 5.01, "timezone": "Europe/Brussels", "population": 3624377, "wikidata_id": "Q231", "wikipedia_id": "fr:Région wallonne"}, "geometry": {"type": "MultiPolygon", "coordinates": [[[[2.845, 50.732], [2.845, 50.732], [2.863, 50.708], [3.019, 50.774], [2.955, 50.797], [2.955, 50.797], [2.845, 50.732]]], [[[3.191, 50.739], [3.195, 50.738], [3.196, 50.722], [3.196, 50.722], [3.276, 50.6], [3.275, 50.597], [3.276, 50.597], [3.28, 50.596], [3.279, 50.595], [3.277, 50.592], [3.278, 50.591], [3.276, 50.586], [3.276, 50.582], [3.277, 50.581], [3.278, 50.581], [3.279, 50.58], [3.279, 50.573], [3.279, 50.572], [3.278, 50.57], [3.278, 50.569], [3.278, 50.564], [3.28, 50.563], [3.282, 50.563], [3.283, 50.563], [3.285, 50.562], [3.281, 50.56], [3.279, 50.559], [3.28, 50.543], [3.28, 50.542], [3.28, 50.542], [3.279, 50.539], [3.282, 50.537], [3.282, 50.537], [3.43, 50.505], [3.43, 50.505], [3.674, 50.401], [3.674, 50.401], [3.801, 50.352], [3.804, 50.353], [3.805, 50.354], [3.806, 50.355], [3.962, 50.348], [3.968, 50.35], [3.968, 50.349], [3.989, 50.346], [3.989, 50.346], [3.997, 50.349], [3.999, 50.348], [4.001, 50.35], [4.003, 50.35], [4.004, 50.35], [4.006, 50.35], [4.034, 50.349], [4.036, 50.345], [4.037, 50.345], [4.036, 50.344], [4.104, 50.309], [4.116, 50.304], [4.141, 49.979], [4.174, 49.976], [4.174, 49.976], [4.175, 49.976], [4.176, 49.975], [4.176, 49.974], [4.176, 49.974], [4.183, 49.972], [4.184, 49.971], [4.185, 49.971], [4.233, 49.958], [4.433, 49.942], [4.895, 50.14], [4.969, 49.802], [5.394, 49.617], [5.471, 49.497], [5.819, 49.546], [5.865, 49.572], [5.887, 49.709], [5.783, 49.876], [5.84, 49.989], [6.025, 50.183], [6.138, 50.13], [6.405, 50.323], [6.021, 50.754], [5.892, 50.755], [5.682, 50.758], [5.688, 50.812], [5.103, 50.709], [5.019, 50.751], [4.1, 50.706], [3.896, 50.733], [3.459, 50.765], [3.328, 50.729], [3.328, 50.73], [3.179, 50.756], [3.191, 50.739]], [[6.166, 50.662], [6.166, 50.662], [6.166, 50.662], [6.166, 50.662]], [[6.167, 50.644], [6.167, 50.644], [6.167, 50.644], [6.167, 50.644]], [[6.174, 50.556], [6.174, 50.556], [6.174, 50.556], [6.174, 50.556]], [[6.187, 50.526], [6.187, 50.526], [6.187, 50.526], [6.187, 50.526]], [[6.246, 50.597], [6.246, 50.597], [6.246, 50.597], [6.246, 50.597]]]]}}